IRIDIUM 64 [+]          
1 25287U 98021C   16182.45351153 -.00000047  00000-0 -23784-4 0  9990
2 25287  86.3947  10.9926 0001990  83.3998 276.7424 14.34215137954583
IRIDIUM 65 [+]          
1 25288U 98021D   16182.45985205 -.00000055  00000-0 -26594-4 0  9993
2 25288  86.3946  10.9000 0002273  83.1035 277.0420 14.34214602954600
IRIDIUM 66 [+]          
1 25289U 98021E   16182.54610332  .00000031  00000-0  39824-5 0  9993
2 25289  86.3948  10.7702 0002321  89.2394 323.2091 14.34215270954610
IRIDIUM 67 [+]          
1 25290U 98021F   16182.47254269  .00000032  00000-0  42923-5 0  9995
2 25290  86.3950  10.9321 0002248  89.0683 271.0771 14.34215319954610
IRIDIUM 68 [+]          
1 25291U 98021G   16182.47888656 -.00000053  00000-0 -25880-4 0  9996
2 25291  86.3948  11.0415 0002207  87.2164 272.9284 14.34214804954586
IRIDIUM 69 [-]          
1 25319U 98026A   16182.51440755  .00000102  00000-0  26777-4 0  9990
2 25319  86.3983  33.6708 0002774  44.4754 315.6667 14.38598921952475
IRIDIUM 71 [-]          
1 25320U 98026B   16182.53612059  .00000083  00000-0  20441-4 0  9992
2 25320  86.3963  29.7204 0004156  75.3115 284.8543 14.39011385952893
IRIDIUM 70 [+]          
1 25342U 98032A   16182.51484082  .00000032  00000-0  42843-5 0  9999
2 25342  86.3954  11.2513 0002391  89.1828 325.6277 14.34215367948691
IRIDIUM 72 [+]          
1 25343U 98032B   16182.49551362  .00000032  00000-0  42469-5 0  9997
2 25343  86.3950  10.8944 0002268  88.4320 292.0644 14.34215161948690
IRIDIUM 73 [-]          
1 25344U 98032C   16182.50182936  .00000133  00000-0  29609-4 0  9999
2 25344  86.4419 351.5587 0002597 105.4652 254.6839 14.48948615956627
IRIDIUM 74 [S]          
1 25345U 98032D   16182.49081839 -.00000023  00000-0 -13059-4 0  9990
2 25345  86.4457  11.2349 0002051  80.7992 335.5088 14.42948381952033
IRIDIUM 75 [+]          
1 25346U 98032E   16182.50825894  .00000032  00000-0  42712-5 0  9997
2 25346  86.3954  11.1287 0002240  88.6529 324.8833 14.34215455949268
IRIDIUM 3 [+]           
1 25431U 98048A   16182.55516550  .00000102  00000-0  29279-4 0  9990
2 25431  86.3956  42.7142 0002361  85.9010 290.2659 14.34217936935212
IRIDIUM 76 [+]          
1 25432U 98048B   16182.17489324  .00000098  00000-0  27994-4 0  9993
2 25432  86.3953  42.6388 0002257  89.4342  26.3852 14.34217701935147
IRIDIUM 82 [+]          
1 25467U 98051A   16182.47054672  .00000031  00000-0  38469-5 0  9999
2 25467  86.3982 169.1812 0002276  80.1101 280.0352 14.34217998936206
IRIDIUM 81 [+]          
1 25468U 98051B   16182.46420612  .00000014  00000-0 -21373-5 0  9998
2 25468  86.3975 168.8019 0002177  84.0062 276.1382 14.34217989932422
IRIDIUM 80 [+]          
1 25469U 98051C   16182.47636154 -.00000018  00000-0 -13598-4 0  9994
2 25469  86.3980 169.0668 0002098  85.9612  74.9657 14.34217148932421
IRIDIUM 77 [+]          
1 25471U 98051E   16182.47312627 -.00000014  00000-0 -12169-4 0  9992
2 25471  86.3971 168.6721 0002323  85.3129  26.1993 14.34217081937622
IRIDIUM 2 [-]           
1 25527U 98066A   16182.23214992  .00001296  00000-0  66790-4 0  9990
2 25527  85.5312 239.7775 0007551 313.6806  46.3807 15.15341681964554
IRIDIUM 86 [+]          
1 25528U 98066B   16182.41006585  .00000124  00000-0  37122-4 0  9994
2 25528  86.3973 136.8957 0002516  84.2519 275.8963 14.34219469928947
IRIDIUM 84 [+]          
1 25530U 98066D   16182.37200850  .00000114  00000-0  33485-4 0  9990
2 25530  86.3975 137.0705 0002236  85.4578 274.6873 14.34219429926573
IRIDIUM 83 [+]          
1 25531U 98066E   16182.40374875  .00000126  00000-0  37895-4 0  9996
2 25531  86.3978 137.1683 0002258  86.4637 273.6817 14.34218256923935
IRIDIUM 20 [+]          
1 25577U 98074A   16182.53303129  .00000099  00000-0  28429-4 0  9995
2 25577  86.3952  42.4152 0002249  85.7985 274.3468 14.34217698918038
IRIDIUM 11 [+]          
1 25578U 98074B   16182.54809178  .00000100  00000-0  28817-4 0  9996
2 25578  86.3951  42.6140 0002204  82.7562 289.6519 14.34217690927001
IRIDIUM 14 [S]          
1 25777U 99032A   16182.45879002  .00000078  00000-0  20734-4 0  9999
2 25777  86.3950  10.9852 0002380  88.2610 331.6712 14.34213449904263
IRIDIUM 21 [+]          
1 25778U 99032B   16182.48520613 -.00000059  00000-0 -27996-4 0  9992
2 25778  86.3947  10.9974 0002089  88.8752 271.2684 14.34216644897701
IRIDIUM 91 [+]          
1 27372U 02005A   16182.26742235  .00000152  00000-0  47111-4 0  9993
2 27372  86.3982  74.9387 0002086  79.8934  37.5338 14.34215689761188
IRIDIUM 90 [S]          
1 27373U 02005B   16182.39569376  .00000143  00000-0  36743-4 0  9990
2 27373  86.4488 137.1424 0002479  87.4930 272.6554 14.42958050760627
IRIDIUM 94 [S]          
1 27374U 02005C   16182.16807064  .00000106  00000-0  30775-4 0  9993
2 27374  86.3953  42.8950 0002908  99.1166  14.2283 14.34217856765490
IRIDIUM 95 [+]          
1 27375U 02005D   16182.21297074  .00000159  00000-0  49818-4 0  9990
2 27375  86.3980  74.7435 0002270  86.5444 273.6012 14.34215994760468
IRIDIUM 96 [S]          
1 27376U 02005E   16182.26078461  .00000181  00000-0  57511-4 0  9997
2 27376  86.4010 106.2374 0001935 121.1159 239.0227 14.34220650765670
IRIDIUM 97 [+]          
1 27450U 02031A   16182.29884614  .00000168  00000-0  52903-4 0  9992
2 27450  86.3977 106.0264 0002095  81.5993 278.5440 14.34220087739796
IRIDIUM 98 [S]          
1 27451U 02031B   16182.44757322 -.00000014  00000-0 -12033-4 0  9997
2 27451  86.3971 169.2543 0002131  82.9801  27.6211 14.34217429740883
